ORBCOMM FM20 [+]        
1 25416U 98046D   24104.23284867  .00001351  00000+0  51861-3 0  9999
2 25416  44.9958  54.0745 0001744 308.6820  51.3870 14.35068982342455
ORBCOMM FM16 [-]        
1 25417U 98046E   24104.83585098  .00001947  00000+0  71208-3 0  9994
2 25417  44.9951  47.1948 0005190 306.0380  53.9986 14.36000899342471
ORBCOMM FM15 [-]        
1 25418U 98046F   24104.30030131  .00001605  00000+0  59880-3 0  9993
2 25418  44.9988  53.7221 0004874 306.0660  53.9736 14.35730450342406
ORBCOMM FM14 [-]        
1 25419U 98046G   24104.28827142  .00001914  00000+0  70254-3 0  9998
2 25419  44.9978  52.9295 0003591 300.7462 213.3752 14.35885363342352
ORBCOMM FM13 [+]        
1 25420U 98046H   24104.22119558  .00001585  00000+0  59827-3 0  9996
2 25420  44.9989  57.9679 0005831 288.4423  71.5790 14.35194935341415
ORBCOMM FM21 [-]        
1 25475U 98053A   24105.14526061  .00001138  00000+0  44392-3 0  9992
2 25475  45.0076 137.8901 0002757 264.5470  95.5063 14.35154906335899
ORBCOMM FM22 [-]        
1 25476U 98053B   24105.13236576  .00001373  00000+0  52011-3 0  9999
2 25476  45.0071 135.3427 0004122 251.7097 108.3302 14.35655958335917
ORBCOMM FM23 [-]        
1 25477U 98053C   24104.47813945  .00001059  00000+0  41607-3 0  9997
2 25477  45.0076 143.4730 0003508 249.6754 110.3716 14.35188226335611
